TRANSPORTER-16 OBJECT AD
1 68443U 26067AD  26107.83863122  .00003630  00000+0  18679-3 0  9990
2 68443  97.4509  67.1851 0002777 290.4910  69.6025 15.17058652  2782
TRANSPORTER-16 OBJECT AE
1 68444U 26067AE  26107.82545925  .00004456  00000+0  22141-3 0  9994
2 68444  97.4533  67.2076 0002135 137.5282 222.6117 15.18165352  2781
TRANSPORTER-16 OBJECT AF
1 68445U 26067AF  26108.56600398  .00003759  00000+0  19409-3 0  9991
2 68445  97.4482  67.8884 0003239 294.5087  65.5809 15.16907372  2899
HADES-SA (SPINNYONE)    
1 68446U 26067AG  26107.37969236  .00010403  00000+0  52913-3 0  9990
2 68446  97.4371  66.6999 0004795 295.6161  64.4577 15.17015776  2703
TRANSPORTER-16 OBJECT AH
1 68447U 26067AH  26108.61776159  .00006784  00000+0  33601-3 0  9999
2 68447  97.4486  67.9735 0001594 127.1041 233.0338 15.18091034  2906
TRANSPORTER-16 OBJECT AJ
1 68448U 26067AJ  26107.83394412  .00002160  00000+0  11024-3 0  9990
2 68448  97.4482  67.1846 0001527 308.7207  51.3890 15.17783038  2786
TRANSPORTER-16 OBJECT AK
1 68449U 26067AK  26107.83675477  .00005326  00000+0  27095-3 0  9996
2 68449  97.4475  67.1795 0002095 299.7451  60.3574 15.17249181  2788
TRANSPORTER-16 OBJECT AL
1 68450U 26067AL  26107.82806843  .00005597  00000+0  27877-3 0  9998
2 68450  97.4511  67.1998 0001282 153.7627 206.3672 15.17972165  2783
TRANSPORTER-16 OBJECT AM
1 68451U 26067AM  26107.82734435  .00005622  00000+0  27950-3 0  9997
2 68451  97.4470  67.1902 0001297 125.8107 234.3248 15.18033420  2785
TRANSPORTER-16 OBJECT AN
1 68452U 26067AN  26107.83610331  .00005295  00000+0  26899-3 0  9994
2 68452  97.4511  67.1895 0001971 284.3767  75.7248 15.17302280  2784
TRANSPORTER-16 OBJECT AP
1 68453U 26067AP  26107.82830777  .00005512  00000+0  27474-3 0  9994
2 68453  97.4515  67.2005 0001289 166.7676 193.3592 15.17951771  2781
TRANSPORTER-16 OBJECT AQ
1 68454U 26067AQ  26107.83956263  .00004324  00000+0  22213-3 0  9991
2 68454  97.4536  67.1906 0003385 277.7615  82.3234 15.17010733  2783
TRANSPORTER-16 OBJECT AR
1 68455U 26067AR  26107.84118952  .00003484  00000+0  18048-3 0  9995
2 68455  97.4537  67.1879 0003786 275.9303  84.1499 15.16843890  2783
PARUS-6U1               
1 68456U 26067AS  26107.84104702  .00004104  00000+0  21185-3 0  9990
2 68456  97.4512  67.1822 0003730 276.5615  83.5194 15.16870724  2788
TRANSPORTER-16 OBJECT AT
1 68457U 26067AT  26107.82428810  .00007300  00000+0  35889-3 0  9995
2 68457  97.4509  67.2034 0002319 134.6246 225.5178 15.18325271  2781
SAL-E                   
1 68458U 26067AU  26107.84135456  .00005731  00000+0  29434-3 0  9994
2 68458  97.4438  67.1660 0003974 291.1678  68.9131 15.16877365  2785
