[{"OBJECT_NAME":"TRANSPORTER-16 OBJECT AD","OBJECT_ID":"2026-067AD","EPOCH":"2026-04-17T20:07:37.737408","MEAN_MOTION":15.17058652,"ECCENTRICITY":0.00027774,"INCLINATION":97.4509,"RA_OF_ASC_NODE":67.1851,"ARG_OF_PERICENTER":290.491,"MEAN_ANOMALY":69.6025,"EPHEMERIS_TYPE":0,"CLASSIFICATION_TYPE":"U","NORAD_CAT_ID":68443,"ELEMENT_SET_NO":999,"REV_AT_EPOCH":278,"BSTAR":0.00018678623,"MEAN_MOTION_DOT":3.63e-5,"MEAN_MOTION_DDOT":0},{"OBJECT_NAME":"TRANSPORTER-16 OBJECT AE","OBJECT_ID":"2026-067AE","EPOCH":"2026-04-17T19:48:39.679200","MEAN_MOTION":15.18165352,"ECCENTRICITY":0.00021358,"INCLINATION":97.4533,"RA_OF_ASC_NODE":67.2076,"ARG_OF_PERICENTER":137.5282,"MEAN_ANOMALY":222.6117,"EPHEMERIS_TYPE":0,"CLASSIFICATION_TYPE":"U","NORAD_CAT_ID":68444,"ELEMENT_SET_NO":999,"REV_AT_EPOCH":278,"BSTAR":0.0002214066,"MEAN_MOTION_DOT":4.456e-5,"MEAN_MOTION_DDOT":0},{"OBJECT_NAME":"TRANSPORTER-16 OBJECT AF","OBJECT_ID":"2026-067AF","EPOCH":"2026-04-18T13:35:02.743872","MEAN_MOTION":15.16907372,"ECCENTRICITY":0.00032393,"INCLINATION":97.4482,"RA_OF_ASC_NODE":67.8884,"ARG_OF_PERICENTER":294.5087,"MEAN_ANOMALY":65.5809,"EPHEMERIS_TYPE":0,"CLASSIFICATION_TYPE":"U","NORAD_CAT_ID":68445,"ELEMENT_SET_NO":999,"REV_AT_EPOCH":289,"BSTAR":0.00019409347,"MEAN_MOTION_DOT":3.759e-5,"MEAN_MOTION_DDOT":0},{"OBJECT_NAME":"HADES-SA (SPINNYONE)","OBJECT_ID":"2026-067AG","EPOCH":"2026-04-17T09:06:45.419904","MEAN_MOTION":15.17015776,"ECCENTRICITY":0.00047954,"INCLINATION":97.4371,"RA_OF_ASC_NODE":66.6999,"ARG_OF_PERICENTER":295.6161,"MEAN_ANOMALY":64.4577,"EPHEMERIS_TYPE":0,"CLASSIFICATION_TYPE":"U","NORAD_CAT_ID":68446,"ELEMENT_SET_NO":999,"REV_AT_EPOCH":270,"BSTAR":0.00052912663,"MEAN_MOTION_DOT":0.00010403,"MEAN_MOTION_DDOT":0},{"OBJECT_NAME":"TRANSPORTER-16 OBJECT AH","OBJECT_ID":"2026-067AH","EPOCH":"2026-04-18T14:49:34.601376","MEAN_MOTION":15.18091034,"ECCENTRICITY":0.00015945,"INCLINATION":97.4486,"RA_OF_ASC_NODE":67.9735,"ARG_OF_PERICENTER":127.1041,"MEAN_ANOMALY":233.0338,"EPHEMERIS_TYPE":0,"CLASSIFICATION_TYPE":"U","NORAD_CAT_ID":68447,"ELEMENT_SET_NO":999,"REV_AT_EPOCH":290,"BSTAR":0.00033601301,"MEAN_MOTION_DOT":6.784e-5,"MEAN_MOTION_DDOT":0},{"OBJECT_NAME":"TRANSPORTER-16 OBJECT AJ","OBJECT_ID":"2026-067AJ","EPOCH":"2026-04-17T20:00:52.771968","MEAN_MOTION":15.17783038,"ECCENTRICITY":0.00015274,"INCLINATION":97.4482,"RA_OF_ASC_NODE":67.1846,"ARG_OF_PERICENTER":308.7207,"MEAN_ANOMALY":51.389,"EPHEMERIS_TYPE":0,"CLASSIFICATION_TYPE":"U","NORAD_CAT_ID":68448,"ELEMENT_SET_NO":999,"REV_AT_EPOCH":278,"BSTAR":0.00011023741,"MEAN_MOTION_DOT":2.16e-5,"MEAN_MOTION_DDOT":0},{"OBJECT_NAME":"TRANSPORTER-16 OBJECT AK","OBJECT_ID":"2026-067AK","EPOCH":"2026-04-17T20:04:55.612128","MEAN_MOTION":15.17249181,"ECCENTRICITY":0.00020952,"INCLINATION":97.4475,"RA_OF_ASC_NODE":67.1795,"ARG_OF_PERICENTER":299.7451,"MEAN_ANOMALY":60.3574,"EPHEMERIS_TYPE":0,"CLASSIFICATION_TYPE":"U","NORAD_CAT_ID":68449,"ELEMENT_SET_NO":999,"REV_AT_EPOCH":278,"BSTAR":0.00027094717,"MEAN_MOTION_DOT":5.326e-5,"MEAN_MOTION_DDOT":0},{"OBJECT_NAME":"TRANSPORTER-16 OBJECT AL","OBJECT_ID":"2026-067AL","EPOCH":"2026-04-17T19:52:25.112352","MEAN_MOTION":15.17972165,"ECCENTRICITY":0.00012826,"INCLINATION":97.4511,"RA_OF_ASC_NODE":67.1998,"ARG_OF_PERICENTER":153.7627,"MEAN_ANOMALY":206.3672,"EPHEMERIS_TYPE":0,"CLASSIFICATION_TYPE":"U","NORAD_CAT_ID":68450,"ELEMENT_SET_NO":999,"REV_AT_EPOCH":278,"BSTAR":0.00027876792,"MEAN_MOTION_DOT":5.597e-5,"MEAN_MOTION_DDOT":0},{"OBJECT_NAME":"TRANSPORTER-16 OBJECT AM","OBJECT_ID":"2026-067AM","EPOCH":"2026-04-17T19:51:22.551840","MEAN_MOTION":15.1803342,"ECCENTRICITY":0.00012973,"INCLINATION":97.447,"RA_OF_ASC_NODE":67.1902,"ARG_OF_PERICENTER":125.8107,"MEAN_ANOMALY":234.3248,"EPHEMERIS_TYPE":0,"CLASSIFICATION_TYPE":"U","NORAD_CAT_ID":68451,"ELEMENT_SET_NO":999,"REV_AT_EPOCH":278,"BSTAR":0.0002795034,"MEAN_MOTION_DOT":5.622e-5,"MEAN_MOTION_DDOT":0},{"OBJECT_NAME":"TRANSPORTER-16 OBJECT AN","OBJECT_ID":"2026-067AN","EPOCH":"2026-04-17T20:03:59.325984","MEAN_MOTION":15.1730228,"ECCENTRICITY":0.00019718,"INCLINATION":97.4511,"RA_OF_ASC_NODE":67.1895,"ARG_OF_PERICENTER":284.3767,"MEAN_ANOMALY":75.7248,"EPHEMERIS_TYPE":0,"CLASSIFICATION_TYPE":"U","NORAD_CAT_ID":68452,"ELEMENT_SET_NO":999,"REV_AT_EPOCH":278,"BSTAR":0.00026899498,"MEAN_MOTION_DOT":5.295e-5,"MEAN_MOTION_DDOT":0},{"OBJECT_NAME":"TRANSPORTER-16 OBJECT AP","OBJECT_ID":"2026-067AP","EPOCH":"2026-04-17T19:52:45.791328","MEAN_MOTION":15.17951771,"ECCENTRICITY":0.00012897,"INCLINATION":97.4515,"RA_OF_ASC_NODE":67.2005,"ARG_OF_PERICENTER":166.7676,"MEAN_ANOMALY":193.3592,"EPHEMERIS_TYPE":0,"CLASSIFICATION_TYPE":"U","NORAD_CAT_ID":68453,"ELEMENT_SET_NO":999,"REV_AT_EPOCH":278,"BSTAR":0.0002747392,"MEAN_MOTION_DOT":5.512e-5,"MEAN_MOTION_DDOT":0},{"OBJECT_NAME":"TRANSPORTER-16 OBJECT AQ","OBJECT_ID":"2026-067AQ","EPOCH":"2026-04-17T20:08:58.211232","MEAN_MOTION":15.17010733,"ECCENTRICITY":0.00033859,"INCLINATION":97.4536,"RA_OF_ASC_NODE":67.1906,"ARG_OF_PERICENTER":277.7615,"MEAN_ANOMALY":82.3234,"EPHEMERIS_TYPE":0,"CLASSIFICATION_TYPE":"U","NORAD_CAT_ID":68454,"ELEMENT_SET_NO":999,"REV_AT_EPOCH":278,"BSTAR":0.00022212702,"MEAN_MOTION_DOT":4.324e-5,"MEAN_MOTION_DDOT":0},{"OBJECT_NAME":"TRANSPORTER-16 OBJECT AR","OBJECT_ID":"2026-067AR","EPOCH":"2026-04-17T20:11:18.774528","MEAN_MOTION":15.1684389,"ECCENTRICITY":0.0003786,"INCLINATION":97.4537,"RA_OF_ASC_NODE":67.1879,"ARG_OF_PERICENTER":275.9303,"MEAN_ANOMALY":84.1499,"EPHEMERIS_TYPE":0,"CLASSIFICATION_TYPE":"U","NORAD_CAT_ID":68455,"ELEMENT_SET_NO":999,"REV_AT_EPOCH":278,"BSTAR":0.00018047969,"MEAN_MOTION_DOT":3.484e-5,"MEAN_MOTION_DDOT":0},{"OBJECT_NAME":"PARUS-6U1","OBJECT_ID":"2026-067AS","EPOCH":"2026-04-17T20:11:06.462528","MEAN_MOTION":15.16870724,"ECCENTRICITY":0.000373,"INCLINATION":97.4512,"RA_OF_ASC_NODE":67.1822,"ARG_OF_PERICENTER":276.5615,"MEAN_ANOMALY":83.5194,"EPHEMERIS_TYPE":0,"CLASSIFICATION_TYPE":"U","NORAD_CAT_ID":68456,"ELEMENT_SET_NO":999,"REV_AT_EPOCH":278,"BSTAR":0.00021185411,"MEAN_MOTION_DOT":4.104e-5,"MEAN_MOTION_DDOT":0},{"OBJECT_NAME":"TRANSPORTER-16 OBJECT AT","OBJECT_ID":"2026-067AT","EPOCH":"2026-04-17T19:46:58.491840","MEAN_MOTION":15.18325271,"ECCENTRICITY":0.00023195,"INCLINATION":97.4509,"RA_OF_ASC_NODE":67.2034,"ARG_OF_PERICENTER":134.6246,"MEAN_ANOMALY":225.5178,"EPHEMERIS_TYPE":0,"CLASSIFICATION_TYPE":"U","NORAD_CAT_ID":68457,"ELEMENT_SET_NO":999,"REV_AT_EPOCH":278,"BSTAR":0.00035888589,"MEAN_MOTION_DOT":7.3e-5,"MEAN_MOTION_DDOT":0},{"OBJECT_NAME":"SAL-E","OBJECT_ID":"2026-067AU","EPOCH":"2026-04-17T20:11:33.033984","MEAN_MOTION":15.16877365,"ECCENTRICITY":0.00039744,"INCLINATION":97.4438,"RA_OF_ASC_NODE":67.166,"ARG_OF_PERICENTER":291.1678,"MEAN_ANOMALY":68.9131,"EPHEMERIS_TYPE":0,"CLASSIFICATION_TYPE":"U","NORAD_CAT_ID":68458,"ELEMENT_SET_NO":999,"REV_AT_EPOCH":278,"BSTAR":0.00029433623,"MEAN_MOTION_DOT":5.731e-5,"MEAN_MOTION_DDOT":0}]
